     3.04           N: GNSS NAV DATA    M: Mixed            RINEX VERSION / TYPE
sbp2rinex v2.3 (RTKL                    20240531 140048 UTC PGM / RUN BY / DATE 
format: Swift Navigation SBP-JSON, option:                  COMMENT             
log: .\swift-gnss-20240529-132206.sbp.json                  COMMENT             
                                                            END OF HEADER       
E24 2024 05 29 10 10 00 -.789045065176D-03 -.211741735257D-10  .000000000000D+00
      .112000000000D+03  .213750000000D+02  .355407661299D-08  .177953631418D+01
      .990927219391D-06  .510351499543D-03  .630505383015D-05  .544060659599D+04
      .295800000000D+06 -.670552253723D-07 -.295998739593D-01 -.558793544769D-08
      .964253274048D+00  .207875000000D+03  .960787894684D+00 -.564202072710D-08
     -.261796619166D-09  .517000000000D+03  .231600000000D+04  .000000000000D+00
      .312000000000D+01  .000000000000D+00 -.465661287308D-08 -.628642737865D-08
      .300147000000D+06  .000000000000D+00
E19 2024 05 29 11 10 00  .226781703532D-04  .680557832311D-10  .000000000000D+00
      .118000000000D+03 -.133937500000D+03  .285154734982D-08  .196903640821D+01
     -.623799860477D-05  .374876311980D-03  .864267349243D-05  .544062410927D+04
      .299400000000D+06 -.670552253723D-07 -.212716660859D+01  .558793544769D-08
      .966670131748D+00  .159250000000D+03 -.132753193649D+01 -.542272587830D-08
      .150363406097D-09  .517000000000D+03  .231600000000D+04  .000000000000D+00
      .312000000000D+01  .000000000000D+00 -.512227416039D-08 -.628642737865D-08
      .300147000000D+06  .000000000000D+00
R17 2024 05 29 11 15 00  .910740345716D-04  .272848410532D-11  .414000000000D+05
      .989253857422D+04 -.661882400513D+00  .000000000000D+00  .000000000000D+00
      .430382763672D+04  .309769630432D+01  .279396772385D-08  .400000000000D+01
      .231136503906D+05 -.297175407410D+00 -.931322574615D-09  .240000000000D+04
R02 2024 05 29 11 15 00 -.231051817536D-04  .000000000000D+00  .414000000000D+05
      .154418271484D+05 -.623401641846D+00  .000000000000D+00  .000000000000D+00
      .189284658203D+05 -.827087402344D+00  .279396772385D-08 -.400000000000D+01
      .750086767578D+04  .338630962372D+01  .931322574615D-09  .240000000000D+04
R18 2024 05 29 11 15 00  .144404359162D-03  .909494701773D-12  .414000000000D+05
      .116414794922D+05 -.708065032959D+00  .000000000000D+00  .000000000000D+00
     -.129877832031D+05  .245366001129D+01  .000000000000D+00 -.300000000000D+01
      .186002353516D+05  .216176795959D+01 -.186264514923D-08  .240000000000D+04
R16 2024 05 29 11 15 00  .260183587670D-04  .000000000000D+00  .414000000000D+05
      .118601665039D+05  .234894180298D+01  .000000000000D+00  .000000000000D+00
     -.131370263672D+05 -.900947570801D+00  .000000000000D+00 -.100000000000D+01
      .183641767578D+05 -.216634941101D+01 -.186264514923D-08  .240000000000D+04
R15 2024 05 29 11 15 00  .793477520347D-04  .000000000000D+00  .414000000000D+05
      .235455371094D+05  .345359802246D+00 -.931322574615D-09  .000000000000D+00
     -.932637304687D+04 -.266387939453D+00  .000000000000D+00  .000000000000D+00
      .302830126953D+04 -.353193664551D+01  .000000000000D+00  .240000000000D+04
R01 2024 05 29 11 15 00  .868011265993D-04  .909494701773D-12  .414000000000D+05
      .259749560547D+04 -.208844757080D+01  .931322574615D-09  .000000000000D+00
      .149698232422D+05 -.187402248383D+01  .279396772385D-08  .100000000000D+01
      .204882714844D+05  .163586425781D+01  .000000000000D+00  .240000000000D+04
R24 2024 05 29 11 15 00 -.577252358198D-04 -.181898940355D-11  .414000000000D+05
      .257541552734D+04 -.302293777466D+00  .931322574615D-09  .000000000000D+00
      .206711362305D+05  .199633884430D+01  .279396772385D-08  .200000000000D+01
      .147208393555D+05 -.275351047516D+01  .000000000000D+00  .240000000000D+04
C27 2024 05 29 11 00 00  .319560174830D-03  .540811839755D-11  .000000000000D+00
      .175000000000D+03  .921562500000D+02  .374587031625D-08  .416860670343D+00
      .456953421235D-05  .708756968379D-03  .793347135186D-05  .528262078285D+04
      .298800000000D+06 -.325962901115D-08  .146994598161D+01  .153668224812D-07
      .958794617599D+00  .200562500000D+03  .137162613799D+01 -.678778273840D-08
     -.194650965137D-09  .120000000000D+02  .960000000000D+03  .000000000000D+00
      .200000000000D+01  .000000000000D+00 -.459999993652D-08 -.459999993652D-08
      .300138000000D+06  .175000000000D+03
C36 2024 05 29 11 00 00  .953258713707D-04  .107807096583D-10  .000000000000D+00
      .175000000000D+03  .254531250000D+02  .453126017375D-08 -.254497691612D+01
      .132154673338D-05  .748760066926D-03  .715907663107D-05  .528264329147D+04
      .298800000000D+06  .745058059692D-08 -.633946978413D+00  .372529029846D-07
      .946236292437D+00  .207968750000D+03 -.136638440449D+01 -.699171980462D-08
      .290726395636D-09  .120000000000D+02  .960000000000D+03  .000000000000D+00
      .200000000000D+01  .000000000000D+00 -.207999999446D-07 -.207999999446D-07
      .300138000000D+06  .175000000000D+03
C30 2024 05 29 11 00 00 -.890899682418D-04 -.979483161245D-11  .000000000000D+00
      .175000000000D+03  .916406250000D+02  .380658713106D-08  .279317188602D+00
      .463519245386D-05  .523212016560D-03  .832276418805D-05  .528261776733D+04
      .298800000000D+06  .400468707085D-07  .143043785712D+01 -.204890966415D-07
      .956737558748D+00  .188062500000D+03  .779251969098D+00 -.683671334798D-08
     -.245724521127D-09  .120000000000D+02  .960000000000D+03  .000000000000D+00
      .200000000000D+01  .000000000000D+00 -.979999992268D-08 -.979999992268D-08
      .300138000000D+06  .175000000000D+03
C33 2024 05 29 11 00 00 -.962803256698D-03  .144240175359D-11  .000000000000D+00
      .175000000000D+03 -.102062500000D+03  .339228415939D-08  .141691038238D+01
     -.499049201608D-05  .538950436749D-03  .520888715982D-05  .528263166046D+04
      .298800000000D+06 -.433064997196D-07 -.273230223321D+01 -.302679836750D-07
      .977265996194D+00  .264343750000D+03 -.153716901303D+00 -.675135264951D-08
      .114290474943D-10  .120000000000D+02  .960000000000D+03  .000000000000D+00
      .200000000000D+01  .000000000000D+00 -.450000001706D-07 -.450000001706D-07
      .300138000000D+06  .175000000000D+03
C32 2024 05 29 11 00 00 -.634246622212D-03 -.894662122164D-11  .000000000000D+00
      .175000000000D+03 -.106781250000D+03  .352300389011D-08  .426218824171D+00
     -.518048182130D-05  .633291201666D-03  .573042780161D-05  .528262726212D+04
      .298800000000D+06 -.316649675369D-07 -.273218207204D+01 -.135041773319D-07
      .977232862563D+00  .250937500000D+03 -.738093706668D+00 -.682171272315D-08
     -.100004165575D-10  .120000000000D+02  .960000000000D+03  .000000000000D+00
      .200000000000D+01  .000000000000D+00 -.759999974065D-08 -.759999974065D-08
      .300138000000D+06  .175000000000D+03
C28 2024 05 29 11 00 00  .245248898864D-03  .412381240267D-11  .000000000000D+00
      .175000000000D+03  .749062500000D+02  .361836500514D-08 -.103878027508D+01
      .358559191227D-05  .539604807273D-04  .796001404524D-05  .528264087486D+04
      .298800000000D+06  .121071934700D-07  .146969611227D+01  .512227416039D-08
      .958672373238D+00  .200328125000D+03 -.275847918607D+01 -.675885296193D-08
     -.227152318949D-09  .120000000000D+02  .960000000000D+03  .000000000000D+00
      .200000000000D+01  .000000000000D+00 -.469999994479D-08 -.469999994479D-08
      .300138000000D+06  .175000000000D+03
C13 2024 05 29 11 00 00  .437034061179D-03  .997424365323D-12  .000000000000D+00
      .175000000000D+03 -.978906250000D+02  .798247535928D-09 -.207575791032D+01
     -.309618189931D-05  .470022670925D-02 -.265194103122D-05  .649340929604D+04
      .298800000000D+06 -.158324837685D-07  .281908312322D+01  .540167093277D-07
      .103284704947D+01  .348546875000D+03 -.241071377508D+01 -.237152735506D-08
      .111790370803D-09  .120000000000D+02  .960000000000D+03  .000000000000D+00
      .200000000000D+01  .000000000000D+00 -.100999999475D-07  .280000000963D-08
      .300138000000D+06  .175000000000D+03
E11 2024 05 29 11 10 00  .276272057090D-02 -.857909299157D-10 -.693889390391D-17
      .118000000000D+03  .105406250000D+03  .256224958512D-08  .288550131271D-01
      .503100454807D-05  .556624378078D-03  .485032796860D-05  .544060588264D+04
      .299400000000D+06 -.409781932831D-07  .206069405561D+01  .447034835815D-07
      .996863523276D+00  .254375000000D+03  .103313753965D+01 -.548451416632D-08
      .307155651409D-10  .517000000000D+03  .231600000000D+04  .000000000000D+00
      .312000000000D+01  .000000000000D+00 -.144354999065D-07 -.165309756994D-07
      .300156000000D+06  .000000000000D+00
E25 2024 05 29 10 50 00  .508967787027D-05  .383693077310D-12  .000000000000D+00
      .116000000000D+03  .196562500000D+02  .352836125612D-08 -.248412052758D+01
      .972300767899D-06  .110561377369D-03  .647455453873D-05  .544059686089D+04
      .298200000000D+06 -.204890966415D-07 -.326406925530D-01  .204890966415D-07
      .966424465378D+00  .204625000000D+03 -.155226391965D+01 -.560201906087D-08
     -.209294432239D-09  .517000000000D+03  .231600000000D+04  .000000000000D+00
      .312000000000D+01  .000000000000D+00  .279396772385D-08  .232830643654D-08
      .300156000000D+06  .000000000000D+00
E02 2024 05 29 11 10 00  .131227134261D-03  .302691205434D-11  .000000000000D+00
      .118000000000D+03  .228125000000D+02  .351657505089D-08  .107381691585D+01
      .112690031528D-05  .235245795920D-03  .651180744171D-05  .544060380936D+04
      .299400000000D+06 -.316649675369D-07 -.295422891149D-01  .596046447754D-07
      .966822727270D+00  .202750000000D+03  .544576075322D+00 -.563344894147D-08
     -.170007081477D-09  .517000000000D+03  .231600000000D+04  .000000000000D+00
      .312000000000D+01  .000000000000D+00 -.256113708019D-08 -.419095158577D-08
      .300156000000D+06  .000000000000D+00
